IRIDIUM 150             
1 43257U 18030J   23256.34189533  .00000493  00000+0  16899-3 0  9998
2 43257  86.4031 351.6822 0002234  85.2189 274.9262 14.34219819285702
IRIDIUM 143             
1 43258U 18030K   23256.46240069  .00000516  00000+0  17712-3 0  9995
2 43258  86.4034 351.6842 0001915  92.5249 267.6167 14.34218020285651
IRIDIUM 161             
1 43478U 18047C   23256.23726499  .00000621  00000+0  17853-3 0  9991
2 43478  86.4538 149.7599 0002268  81.2957 278.8501 14.43282128279752
IRIDIUM 152             
1 43479U 18047D   23256.22581435  .00000470  00000+0  16084-3 0  9997
2 43479  86.4012 149.6249 0001897  83.0844 277.0568 14.34222679278010
IRIDIUM 147             
1 43480U 18047E   23256.23215742  .00000338  00000+0  11373-3 0  9994
2 43480  86.4013 149.6098 0002259  86.2481 273.8973 14.34219751278011
IRIDIUM 110             
1 43481U 18047F   23256.23848993  .00000074  00000+0  19268-4 0  9994
2 43481  86.4015 149.6725 0002436  83.1339 277.0134 14.34212825278005
IRIDIUM 162             
1 43482U 18047G   23256.09224371  .00000568  00000+0  16294-3 0  9990
2 43482  86.4537 149.7244 0002200  82.5089 277.6361 14.43291529279722
IRIDIUM 160             
1 43569U 18061A   23256.53317538  .00000337  00000+0  11335-3 0  9994
2 43569  86.3945 117.9380 0002028  92.1519 267.9909 14.34214312268948
